[
  {
    "OBJECT_NAME": "STARLINK-1306",
    "OBJECT_ID": "20019C",
    "EPOCH": "2025-11-11T08:00:03.000384",
    "MEAN_MOTION": 15.73303323,
    "ECCENTRICITY": 0.0006871,
    "INCLINATION": 53.0451,
    "RA_OF_ASC_NODE": 300.2456,
    "ARG_OF_PERICENTER": 0.7478,
    "MEAN_ANOMALY": 329.8131,
    "EPHEMERIS_TYPE": 0,
    "CLASSIFICATION_TYPE": "U",
    "NORAD_CAT_ID": 45362,
    "ELEMENT_SET_NO": 999,
    "REV_AT_EPOCH": 597,
    "BSTAR": 0.0021232,
    "MEAN_MOTION_DOT": 0.00310305,
    "MEAN_MOTION_DDOT": 0.0,
    "TLE_LINE1": "1 45362U 20019C   25315.33336806  .00310305  00000+0  21232-2 0  9993",
    "TLE_LINE2": "2 45362  53.0451 300.2456 0006871   0.7478 329.8131 15.73303323  5976",
    "COMMENT": "Grouped by shell and plane from TLE"
  },
  {
    "OBJECT_NAME": "STARLINK-1474",
    "OBJECT_ID": "20038J",
    "EPOCH": "2025-11-11T05:40:54.425856",
    "MEAN_MOTION": 15.68688844,
    "ECCENTRICITY": 0.0004443,
    "INCLINATION": 53.0374,
    "RA_OF_ASC_NODE": 301.2637,
    "ARG_OF_PERICENTER": 25.9526,
    "MEAN_ANOMALY": 334.1712,
    "EPHEMERIS_TYPE": 0,
    "CLASSIFICATION_TYPE": "U",
    "NORAD_CAT_ID": 45738,
    "ELEMENT_SET_NO": 999,
    "REV_AT_EPOCH": 29984,
    "BSTAR": 0.00085608,
    "MEAN_MOTION_DOT": 0.00100109,
    "MEAN_MOTION_DDOT": 0.0,
    "TLE_LINE1": "1 45738U 20038J   25315.23674104  .00100109  00000+0  85608-3 0  9993",
    "TLE_LINE2": "2 45738  53.0374 301.2637 0004443  25.9526 334.1712 15.68688844299848",
    "COMMENT": "Grouped by shell and plane from TLE"
  },
  {
    "OBJECT_NAME": "STARLINK-1705",
    "OBJECT_ID": "20070AZ",
    "EPOCH": "2025-11-11T08:00:03.000384",
    "MEAN_MOTION": 15.59743552,
    "ECCENTRICITY": 0.0010886,
    "INCLINATION": 53.0474,
    "RA_OF_ASC_NODE": 303.1,
    "ARG_OF_PERICENTER": 8.7649,
    "MEAN_ANOMALY": 183.9337,
    "EPHEMERIS_TYPE": 0,
    "CLASSIFICATION_TYPE": "U",
    "NORAD_CAT_ID": 46579,
    "ELEMENT_SET_NO": 999,
    "REV_AT_EPOCH": 594,
    "BSTAR": 0.0031736,
    "MEAN_MOTION_DOT": 0.00267517,
    "MEAN_MOTION_DDOT": 0.0,
    "TLE_LINE1": "1 46579U 20070AZ  25315.33336806  .00267517  00000+0  31736-2 0  9997",
    "TLE_LINE2": "2 46579  53.0474 303.1000 0010886   8.7649 183.9337 15.59743552  5948",
    "COMMENT": "Grouped by shell and plane from TLE"
  },
  {
    "OBJECT_NAME": "STARLINK-2619",
    "OBJECT_ID": "21040AZ",
    "EPOCH": "2025-11-11T08:00:03.000384",
    "MEAN_MOTION": 15.60300597,
    "ECCENTRICITY": 0.0001638,
    "INCLINATION": 53.0274,
    "RA_OF_ASC_NODE": 300.7297,
    "ARG_OF_PERICENTER": 46.8706,
    "MEAN_ANOMALY": 43.9622,
    "EPHEMERIS_TYPE": 0,
    "CLASSIFICATION_TYPE": "U",
    "NORAD_CAT_ID": 48475,
    "ELEMENT_SET_NO": 999,
    "REV_AT_EPOCH": 600,
    "BSTAR": 0.0032471,
    "MEAN_MOTION_DOT": 0.00279463,
    "MEAN_MOTION_DDOT": 0.0,
    "TLE_LINE1": "1 48475U 21040AZ  25315.33336806  .00279463  00000+0  32471-2 0  9992",
    "TLE_LINE2": "2 48475  53.0274 300.7297 0001638  46.8706  43.9622 15.60300597  6006",
    "COMMENT": "Grouped by shell and plane from TLE"
  },
  {
    "OBJECT_NAME": "STARLINK-11182 [DTC]",
    "OBJECT_ID": "24141B",
    "EPOCH": "2025-11-11T06:08:45.028608",
    "MEAN_MOTION": 15.69700968,
    "ECCENTRICITY": 0.0001266,
    "INCLINATION": 53.1588,
    "RA_OF_ASC_NODE": 309.9443,
    "ARG_OF_PERICENTER": 89.1073,
    "MEAN_ANOMALY": 271.009,
    "EPHEMERIS_TYPE": 0,
    "CLASSIFICATION_TYPE": "U",
    "NORAD_CAT_ID": 60399,
    "ELEMENT_SET_NO": 999,
    "REV_AT_EPOCH": 7314,
    "BSTAR": 5.3921e-05,
    "MEAN_MOTION_DOT": 5.946e-05,
    "MEAN_MOTION_DDOT": 0.0,
    "TLE_LINE1": "1 60399U 24141B   25315.25607672  .00005946  00000+0  53921-4 0  9997",
    "TLE_LINE2": "2 60399  53.1588 309.9443 0001266  89.1073 271.0090 15.69700968 73149",
    "COMMENT": "Grouped by shell and plane from TLE"
  },
  {
    "OBJECT_NAME": "STARLINK-11234 [DTC]",
    "OBJECT_ID": "24141C",
    "EPOCH": "2025-11-11T06:01:41.416320",
    "MEAN_MOTION": 15.69707153,
    "ECCENTRICITY": 0.000164,
    "INCLINATION": 53.1596,
    "RA_OF_ASC_NODE": 309.911,
    "ARG_OF_PERICENTER": 75.5252,
    "MEAN_ANOMALY": 284.5948,
    "EPHEMERIS_TYPE": 0,
    "CLASSIFICATION_TYPE": "U",
    "NORAD_CAT_ID": 60400,
    "ELEMENT_SET_NO": 999,
    "REV_AT_EPOCH": 7309,
    "BSTAR": 1.502e-05,
    "MEAN_MOTION_DOT": 1.23e-05,
    "MEAN_MOTION_DDOT": 0.0,
    "TLE_LINE1": "1 60400U 24141C   25315.25117380  .00001230  00000+0  15020-4 0  9992",
    "TLE_LINE2": "2 60400  53.1596 309.9110 0001640  75.5252 284.5948 15.69707153 73094",
    "COMMENT": "Grouped by shell and plane from TLE"
  },
  {
    "OBJECT_NAME": "STARLINK-11232 [DTC]",
    "OBJECT_ID": "24141D",
    "EPOCH": "2025-11-11T05:54:37.234656",
    "MEAN_MOTION": 15.69713315,
    "ECCENTRICITY": 0.0001342,
    "INCLINATION": 53.1595,
    "RA_OF_ASC_NODE": 309.8823,
    "ARG_OF_PERICENTER": 72.84,
    "MEAN_ANOMALY": 287.2765,
    "EPHEMERIS_TYPE": 0,
    "CLASSIFICATION_TYPE": "U",
    "NORAD_CAT_ID": 60401,
    "ELEMENT_SET_NO": 999,
    "REV_AT_EPOCH": 7314,
    "BSTAR": 1.4604000000000001e-05,
    "MEAN_MOTION_DOT": 1.181e-05,
    "MEAN_MOTION_DDOT": 0.0,
    "TLE_LINE1": "1 60401U 24141D   25315.24626429  .00001181  00000+0  14604-4 0  9993",
    "TLE_LINE2": "2 60401  53.1595 309.8823 0001342  72.8400 287.2765 15.69713315 73148",
    "COMMENT": "Grouped by shell and plane from TLE"
  },
  {
    "OBJECT_NAME": "STARLINK-11139 [DTC]",
    "OBJECT_ID": "24141E",
    "EPOCH": "2025-11-11T05:47:33.457344",
    "MEAN_MOTION": 15.69704872,
    "ECCENTRICITY": 0.000161,
    "INCLINATION": 53.159,
    "RA_OF_ASC_NODE": 309.8462,
    "ARG_OF_PERICENTER": 86.675,
    "MEAN_ANOMALY": 273.4452,
    "EPHEMERIS_TYPE": 0,
    "CLASSIFICATION_TYPE": "U",
    "NORAD_CAT_ID": 60402,
    "ELEMENT_SET_NO": 999,
    "REV_AT_EPOCH": 7314,
    "BSTAR": 3.1232e-05,
    "MEAN_MOTION_DOT": 3.195e-05,
    "MEAN_MOTION_DDOT": 0.0,
    "TLE_LINE1": "1 60402U 24141E   25315.24135946  .00003195  00000+0  31232-4 0  9996",
    "TLE_LINE2": "2 60402  53.1590 309.8462 0001610  86.6750 273.4452 15.69704872 73140",
    "COMMENT": "Grouped by shell and plane from TLE"
  },
  {
    "OBJECT_NAME": "STARLINK-11191 [DTC]",
    "OBJECT_ID": "24141N",
    "EPOCH": "2025-11-11T06:15:48.980448",
    "MEAN_MOTION": 15.69700049,
    "ECCENTRICITY": 0.0001163,
    "INCLINATION": 53.1588,
    "RA_OF_ASC_NODE": 309.973,
    "ARG_OF_PERICENTER": 70.4259,
    "MEAN_ANOMALY": 289.6884,
    "EPHEMERIS_TYPE": 0,
    "CLASSIFICATION_TYPE": "U",
    "NORAD_CAT_ID": 60410,
    "ELEMENT_SET_NO": 999,
    "REV_AT_EPOCH": 7314,
    "BSTAR": 3.522700000000001e-05,
    "MEAN_MOTION_DOT": 3.679e-05,
    "MEAN_MOTION_DDOT": 0.0,
    "TLE_LINE1": "1 60410U 24141N   25315.26098357  .00003679  00000+0  35227-4 0  9996",
    "TLE_LINE2": "2 60410  53.1588 309.9730 0001163  70.4259 289.6884 15.69700049 73143",
    "COMMENT": "Grouped by shell and plane from TLE"
  },
  {
    "OBJECT_NAME": "STARLINK-11559 [DTC]",
    "OBJECT_ID": "25019C",
    "EPOCH": "2025-11-11T06:50:30.537888",
    "MEAN_MOTION": 15.70922776,
    "ECCENTRICITY": 0.0002057,
    "INCLINATION": 43.001,
    "RA_OF_ASC_NODE": 300.1476,
    "ARG_OF_PERICENTER": 247.6582,
    "MEAN_ANOMALY": 112.4068,
    "EPHEMERIS_TYPE": 0,
    "CLASSIFICATION_TYPE": "U",
    "NORAD_CAT_ID": 62831,
    "ELEMENT_SET_NO": 999,
    "REV_AT_EPOCH": 4525,
    "BSTAR": 0.0016603000000000002,
    "MEAN_MOTION_DOT": 0.00219068,
    "MEAN_MOTION_DDOT": 0.0,
    "TLE_LINE1": "1 62831U 25019C   25315.28507567  .00219068  00000+0  16603-2 0  9996",
    "TLE_LINE2": "2 62831  43.0010 300.1476 0002057 247.6582 112.4068 15.70922776 45253",
    "COMMENT": "Grouped by shell and plane from TLE"
  },
  {
    "OBJECT_NAME": "STARLINK-11549 [DTC]",
    "OBJECT_ID": "25019D",
    "EPOCH": "2025-11-11T06:27:34.410528",
    "MEAN_MOTION": 15.70961023,
    "ECCENTRICITY": 4.25e-05,
    "INCLINATION": 42.9983,
    "RA_OF_ASC_NODE": 300.0176,
    "ARG_OF_PERICENTER": 126.726,
    "MEAN_ANOMALY": 233.3646,
    "EPHEMERIS_TYPE": 0,
    "CLASSIFICATION_TYPE": "U",
    "NORAD_CAT_ID": 62832,
    "ELEMENT_SET_NO": 999,
    "REV_AT_EPOCH": 4525,
    "BSTAR": 0.0030819999999999997,
    "MEAN_MOTION_DOT": 0.00417704,
    "MEAN_MOTION_DDOT": 0.0,
    "TLE_LINE1": "1 62832U 25019D   25315.26914827  .00417704  00000+0  30820-2 0  9990",
    "TLE_LINE2": "2 62832  42.9983 300.0176 0000425 126.7260 233.3646 15.70961023 45257",
    "COMMENT": "Grouped by shell and plane from TLE"
  },
  {
    "OBJECT_NAME": "STARLINK-11554 [DTC]",
    "OBJECT_ID": "25019E",
    "EPOCH": "2025-11-11T02:00:32.874912",
    "MEAN_MOTION": 15.70831515,
    "ECCENTRICITY": 0.000338,
    "INCLINATION": 42.9988,
    "RA_OF_ASC_NODE": 301.2108,
    "ARG_OF_PERICENTER": 294.3825,
    "MEAN_ANOMALY": 65.669,
    "EPHEMERIS_TYPE": 0,
    "CLASSIFICATION_TYPE": "U",
    "NORAD_CAT_ID": 62833,
    "ELEMENT_SET_NO": 999,
    "REV_AT_EPOCH": 4522,
    "BSTAR": 0.0025944,
    "MEAN_MOTION_DOT": 0.00346607,
    "MEAN_MOTION_DDOT": 0.0,
    "TLE_LINE1": "1 62833U 25019E   25315.08371383  .00346607  00000+0  25944-2 0  9999",
    "TLE_LINE2": "2 62833  42.9988 301.2108 0003380 294.3825  65.6690 15.70831515 45227",
    "COMMENT": "Grouped by shell and plane from TLE"
  },
  {
    "OBJECT_NAME": "STARLINK-11546 [DTC]",
    "OBJECT_ID": "25019G",
    "EPOCH": "2025-11-11T06:58:09.664896",
    "MEAN_MOTION": 15.70944483,
    "ECCENTRICITY": 0.0002049,
    "INCLINATION": 43.0,
    "RA_OF_ASC_NODE": 300.1887,
    "ARG_OF_PERICENTER": 303.8829,
    "MEAN_ANOMALY": 56.1843,
    "EPHEMERIS_TYPE": 0,
    "CLASSIFICATION_TYPE": "U",
    "NORAD_CAT_ID": 62835,
    "ELEMENT_SET_NO": 999,
    "REV_AT_EPOCH": 4525,
    "BSTAR": 0.0026013,
    "MEAN_MOTION_DOT": 0.00349282,
    "MEAN_MOTION_DDOT": 0.0,
    "TLE_LINE1": "1 62835U 25019G   25315.29038964  .00349282  00000+0  26013-2 0  9999",
    "TLE_LINE2": "2 62835  43.0000 300.1887 0002049 303.8829  56.1843 15.70944483 45256",
    "COMMENT": "Grouped by shell and plane from TLE"
  },
  {
    "OBJECT_NAME": "STARLINK-11524 [DTC]",
    "OBJECT_ID": "25019L",
    "EPOCH": "2025-11-11T00:36:38.015136",
    "MEAN_MOTION": 15.70837709,
    "ECCENTRICITY": 0.0003777,
    "INCLINATION": 43.0002,
    "RA_OF_ASC_NODE": 301.6349,
    "ARG_OF_PERICENTER": 295.9111,
    "MEAN_ANOMALY": 64.1367,
    "EPHEMERIS_TYPE": 0,
    "CLASSIFICATION_TYPE": "U",
    "NORAD_CAT_ID": 62839,
    "ELEMENT_SET_NO": 999,
    "REV_AT_EPOCH": 4521,
    "BSTAR": 0.0021801000000000004,
    "MEAN_MOTION_DOT": 0.00289257,
    "MEAN_MOTION_DDOT": 0.0,
    "TLE_LINE1": "1 62839U 25019L   25315.02543999  .00289257  00000+0  21801-2 0  9998",
    "TLE_LINE2": "2 62839  43.0002 301.6349 0003777 295.9111  64.1367 15.70837709 45213",
    "COMMENT": "Grouped by shell and plane from TLE"
  }
]